CCSDS_OMM_VERS,COMMENT,CREATION_DATE,ORIGINATOR,OBJECT_NAME,OBJECT_ID,CENTER_NAME,REF_FRAME,TIME_SYSTEM,MEAN_ELEMENT_THEORY,EPOCH,MEAN_MOTION,ECCENTRICITY,INCLINATION,RA_OF_ASC_NODE,ARG_OF_PERICENTER,MEAN_ANOMALY,EPHEMERIS_TYPE,CLASSIFICATION_TYPE,NORAD_CAT_ID,ELEMENT_SET_NO,REV_AT_EPOCH,BSTAR,MEAN_MOTION_DOT,MEAN_MOTION_DDOT,SEMIMAJOR_AXIS,PERIOD,APOAPSIS,PERIAPSIS,OBJECT_TYPE,RCS_SIZE,COUNTRY_CODE,LAUNCH_DATE,SITE,DECAY_DATE,FILE,GP_ID,TLE_LINE0,TLE_LINE1,TLE_LINE2,norad_id
3.0,GENERATED VIA SPACE-TRACK.ORG API,2026-06-03T11:16:57,18 SPCS,NAVSTAR 83 (USA 440),2024-242A,EARTH,TEME,UTC,SGP4,2026-06-03 03:06:38.576160+00:00,2.00571613,0.00173845,54.8556,334.7514,4.3653,173.9988,0,U,62339,999,1097,0.00000000000000,-0.00000080,0.0000000000000,26559.641,717.948,20227.678,20135.333,PAYLOAD,LARGE,US,2024-12-17,AFETR,,5228320,326850995,0 NAVSTAR 83 (USA 440),1 62339U 24242A   26154.12961315 -.00000080  00000-0  00000-0 0  9992,2 62339  54.8556 334.7514 0017384   4.3653 173.9988  2.00571613 10976,62339
3.0,GENERATED VIA SPACE-TRACK.ORG API,2026-06-03T22:56:36,18 SPCS,NAVSTAR 83 (USA 440),2024-242A,EARTH,TEME,UTC,SGP4,2026-06-03 21:04:25.178880+00:00,2.00571611,0.00173850,54.8552,334.7212,4.3535,354.4544,0,U,62339,999,1098,0.00000000000000,-0.00000076,0.0000000000000,26559.641,717.948,20227.680,20135.332,PAYLOAD,LARGE,US,2024-12-17,AFETR,,5229266,326979267,0 NAVSTAR 83 (USA 440),1 62339U 24242A   26154.87806920 -.00000076  00000-0  00000+0 0  9998,2 62339  54.8552 334.7212 0017385   4.3535 354.4544  2.00571611 10980,62339
3.0,GENERATED VIA SPACE-TRACK.ORG API,2026-06-04T04:32:25,18 SPCS,NAVSTAR 83 (USA 440),2024-242A,EARTH,TEME,UTC,SGP4,2026-06-03 21:04:25.179744+00:00,2.00571611,0.00173853,54.8552,334.7212,4.3535,354.4544,0,U,62339,999,1098,0.00000000000000,-0.00000076,0.0000000000000,26559.641,717.948,20227.681,20135.331,PAYLOAD,LARGE,US,2024-12-17,AFETR,,5229409,327017750,0 NAVSTAR 83 (USA 440),1 62339U 24242A   26154.87806921 -.00000076  00000-0  00000-0 0  9990,2 62339  54.8552 334.7212 0017385   4.3535 354.4544  2.00571611 10980,62339
3.0,GENERATED VIA SPACE-TRACK.ORG API,2026-06-04T12:20:25,18 SPCS,NAVSTAR 83 (USA 440),2024-242A,EARTH,TEME,UTC,SGP4,2026-06-04 03:14:26.748384+00:00,2.00571604,0.00173828,54.8549,334.7108,4.3367,180.0182,0,U,62339,999,1099,0.00000000000000,-0.00000075,0.0000000000000,26559.642,717.948,20227.675,20135.338,PAYLOAD,LARGE,US,2024-12-17,AFETR,,5229914,327097794,0 NAVSTAR 83 (USA 440),1 62339U 24242A   26155.13503181 -.00000075  00000-0  00000-0 0  9991,2 62339  54.8549 334.7108 0017383   4.3367 180.0182  2.00571604 10995,62339
3.0,GENERATED VIA SPACE-TRACK.ORG API,2026-06-05T02:58:45,18 SPCS,NAVSTAR 83 (USA 440),2024-242A,EARTH,TEME,UTC,SGP4,2026-06-04 21:01:45.812352+00:00,2.00571595,0.00173804,54.8548,334.6808,4.3372,355.2170,0,U,62339,999,1100,0.00000000000000,-0.00000072,0.0000000000000,26559.642,717.948,20227.669,20135.346,PAYLOAD,LARGE,US,2024-12-17,AFETR,,5230353,327170825,0 NAVSTAR 83 (USA 440),1 62339U 24242A   26155.87622468 -.00000072  00000-0  00000-0 0  9999,2 62339  54.8548 334.6808 0017380   4.3372 355.2170  2.00571595 11008,62339
3.0,GENERATED VIA SPACE-TRACK.ORG API,2026-06-06T10:37:48,18 SPCS,NAVSTAR 83 (USA 440),2024-242A,EARTH,TEME,UTC,SGP4,2026-06-05 20:59:01.671360+00:00,2.00571560,0.00173756,54.8538,334.6404,4.2919,355.9685,0,U,62339,999,1103,0.00000000000000,-0.00000067,0.0000000000000,26559.645,717.948,20227.659,20135.362,PAYLOAD,LARGE,US,2024-12-17,AFETR,,5232600,327481824,0 NAVSTAR 83 (USA 440),1 62339U 24242A   26156.87432490 -.00000067  00000-0  00000-0 0  9998,2 62339  54.8538 334.6404 0017376   4.2919 355.9685  2.00571560 11033,62339
3.0,GENERATED VIA SPACE-TRACK.ORG API,2026-06-07T03:17:11,18 SPCS,NAVSTAR 83 (USA 440),2024-242A,EARTH,TEME,UTC,SGP4,2026-06-06 20:56:20.893056+00:00,2.00571511,0.00173929,54.8526,334.6000,4.1910,356.8034,0,U,62339,999,1105,0.00000000000000,-0.00000064,0.0000000000000,26559.650,717.948,20227.710,20135.320,PAYLOAD,LARGE,US,2024-12-17,AFETR,,5234182,327701641,0 NAVSTAR 83 (USA 440),1 62339U 24242A   26157.87246404 -.00000064  00000-0  00000-0 0  9994,2 62339  54.8526 334.6000 0017393   4.1910 356.8034  2.00571511 11057,62339
3.0,GENERATED VIA SPACE-TRACK.ORG API,2026-06-08T10:56:51,18 SPCS,NAVSTAR 83 (USA 440),2024-242A,EARTH,TEME,UTC,SGP4,2026-06-07 20:53:43.918080+00:00,2.00571460,0.00173904,54.8519,334.5596,4.1176,357.6425,0,U,62339,999,1107,0.00000000000000,-0.00000062,0.0000000000000,26559.654,717.949,20227.708,20135.331,PAYLOAD,LARGE,US,2024-12-17,AFETR,,5237053,328039248,0 NAVSTAR 83 (USA 440),1 62339U 24242A   26158.87064720 -.00000062  00000-0  00000-0 0  9992,2 62339  54.8519 334.5596 0017390   4.1176 357.6425  2.00571460 11077,62339
3.0,GENERATED VIA SPACE-TRACK.ORG API,2026-06-10T02:40:42,18 SPCS,NAVSTAR 83 (USA 440),2024-242A,EARTH,TEME,UTC,SGP4,2026-06-09 15:32:00.765312+00:00,2.00571369,0.00173405,54.8506,334.4875,4.0342,200.5573,0,U,62339,999,1110,0.00000000000000,-0.00000062,0.0000000000000,26559.662,717.949,20227.583,20135.472,PAYLOAD,LARGE,US,2024-12-17,AFETR,,5240081,328454511,0 NAVSTAR 83 (USA 440),1 62339U 24242A   26160.64723108 -.00000062  00000-0  00000-0 0  9992,2 62339  54.8506 334.4875 0017340   4.0342 200.5573  2.00571369 11103,62339
3.0,GENERATED VIA SPACE-TRACK.ORG API,2026-06-10T11:00:42,18 SPCS,NAVSTAR 83 (USA 440),2024-242A,EARTH,TEME,UTC,SGP4,2026-06-09 20:48:16.099200+00:00,2.00571348,0.00173168,54.8503,334.4786,3.9741,359.2011,0,U,62339,999,1111,0.00000000000000,-0.00000062,0.0000000000000,26559.664,717.949,20227.522,20135.536,PAYLOAD,LARGE,US,2024-12-17,AFETR,,5240916,328568085,0 NAVSTAR 83 (USA 440),1 62339U 24242A   26160.86685300 -.00000062  00000-0  00000-0 0  9997,2 62339  54.8503 334.4786 0017317   3.9741 359.2011  2.00571348 11113,62339
3.0,GENERATED VIA SPACE-TRACK.ORG API,2026-06-11T11:04:42,18 SPCS,NAVSTAR 83 (USA 440),2024-242A,EARTH,TEME,UTC,SGP4,2026-06-10 20:45:32.983776+00:00,2.00571298,0.00173081,54.8505,334.4380,3.9284,359.9607,0,U,62339,999,1113,0.00000000000000,-0.00000065,0.0000000000000,26559.669,717.949,20227.503,20135.564,PAYLOAD,LARGE,US,2024-12-17,AFETR,,5241797,328708218,0 NAVSTAR 83 (USA 440),1 62339U 24242A   26161.86496509 -.00000065  00000-0  00000-0 0  9992,2 62339  54.8505 334.4380 0017308   3.9284 359.9607  2.00571298 11131,62339
3.0,GENERATED VIA SPACE-TRACK.ORG API,2026-06-13T16:46:33,18 SPCS,NAVSTAR 83 (USA 440),2024-242A,EARTH,TEME,UTC,SGP4,2026-06-13 08:49:23.988864+00:00,2.00571230,0.00171880,54.8503,334.3363,3.9293,7.0837,0,U,62339,999,1118,0.00000000000000,-0.00000075,0.0000000000000,26559.675,717.949,20227.190,20135.889,PAYLOAD,LARGE,US,2024-12-17,AFETR,,5244193,329065214,0 NAVSTAR 83 (USA 440),1 62339U 24242A   26164.36763876 -.00000075  00000-0  00000+0 0  9994,2 62339  54.8503 334.3363 0017188   3.9293   7.0837  2.00571230 11182,62339
3.0,GENERATED VIA SPACE-TRACK.ORG API,2026-06-13T17:55:43,18 SPCS,NAVSTAR 83 (USA 440),2024-242A,EARTH,TEME,UTC,SGP4,2026-06-13 08:49:23.989728+00:00,2.00571230,0.00171883,54.8503,334.3363,3.9293,7.0837,0,U,62339,999,1118,0.00000000000000,-0.00000075,0.0000000000000,26559.675,717.949,20227.191,20135.888,PAYLOAD,LARGE,US,2024-12-17,AFETR,,5244319,329105065,0 NAVSTAR 83 (USA 440),1 62339U 24242A   26164.36763877 -.00000075  00000-0  00000-0 0  9996,2 62339  54.8503 334.3363 0017188   3.9293   7.0837  2.00571230 11182,62339
3.0,GENERATED VIA SPACE-TRACK.ORG API,2026-06-17T17:43:15,18 SPCS,NAVSTAR 83 (USA 440),2024-242A,EARTH,TEME,UTC,SGP4,2026-06-17 08:41:48.247008+00:00,2.00571336,0.00172297,54.8483,334.1736,4.0833,11.4300,0,U,62339,999,1126,0.00000000000000,-0.00000089,0.0000000000000,26559.665,717.949,20227.292,20135.769,PAYLOAD,LARGE,US,2024-12-17,AFETR,,5252865,330241586,0 NAVSTAR 83 (USA 440),1 62339U 24242A   26168.36236397 -.00000089  00000-0  00000-0 0  9997,2 62339  54.8483 334.1736 0017230   4.0833  11.4300  2.00571336 11261,62339
3.0,GENERATED VIA SPACE-TRACK.ORG API,2026-06-18T21:56:36,18 SPCS,NAVSTAR 83 (USA 440),2024-242A,EARTH,TEME,UTC,SGP4,2026-06-18 08:19:55.500960+00:00,2.00571406,0.00174870,54.8480,334.1335,4.2471,2.3726,0,U,62339,999,1128,0.00000000000000,-0.00000091,0.0000000000000,26559.659,717.949,20227.969,20135.079,PAYLOAD,LARGE,US,2024-12-17,AFETR,,5254355,330489903,0 NAVSTAR 83 (USA 440),1 62339U 24242A   26169.34717015 -.00000091  00000-0  00000+0 0  9999,2 62339  54.8480 334.1335 0017487   4.2471   2.3726  2.00571406 11288,62339
3.0,GENERATED VIA SPACE-TRACK.ORG API,2026-06-18T17:45:15,18 SPCS,NAVSTAR 83 (USA 440),2024-242A,EARTH,TEME,UTC,SGP4,2026-06-18 08:19:55.501824+00:00,2.00571406,0.00174870,54.8480,334.1335,4.2471,2.3726,0,U,62339,999,1128,0.00000000000000,-0.00000091,0.0000000000000,26559.659,717.949,20227.969,20135.079,PAYLOAD,LARGE,US,2024-12-17,AFETR,,5253513,330399932,0 NAVSTAR 83 (USA 440),1 62339U 24242A   26169.34717016 -.00000091  00000-0  00000-0 0  9991,2 62339  54.8480 334.1335 0017487   4.2471   2.3726  2.00571406 11288,62339
3.0,GENERATED VIA SPACE-TRACK.ORG API,2026-06-18T22:56:47,18 SPCS,NAVSTAR 83 (USA 440),2024-242A,EARTH,TEME,UTC,SGP4,2026-06-18 19:58:03.345888+00:00,2.00571448,0.00175870,54.8480,334.1137,4.3197,352.3728,0,U,62339,999,1128,0.00000000000000,-0.00000092,0.0000000000000,26559.655,717.949,20228.231,20134.810,PAYLOAD,LARGE,US,2024-12-17,AFETR,,5254876,330543125,0 NAVSTAR 83 (USA 440),1 62339U 24242A   26169.83198317 -.00000092  00000-0  00000+0 0  9992,2 62339  54.8480 334.1137 0017587   4.3197 352.3728  2.00571448 11281,62339
3.0,GENERATED VIA SPACE-TRACK.ORG API,2026-06-19T02:57:24,18 SPCS,NAVSTAR 83 (USA 440),2024-242A,EARTH,TEME,UTC,SGP4,2026-06-18 19:58:03.346752+00:00,2.00571448,0.00175866,54.8480,334.1138,4.3197,352.3728,0,U,62339,999,1128,0.00000000000000,-0.00000092,0.0000000000000,26559.655,717.949,20228.230,20134.811,PAYLOAD,LARGE,US,2024-12-17,AFETR,,5255019,330579851,0 NAVSTAR 83 (USA 440),1 62339U 24242A   26169.83198318 -.00000092  00000-0  00000-0 0  9994,2 62339  54.8480 334.1138 0017587   4.3197 352.3728  2.00571448 11282,62339
